[{"OBJECT_NAME":"COSMOS 1602","OBJECT_ID":"1984-105A","EPOCH":"2026-04-22T04:28:20.583840","MEAN_MOTION":16.04326357,"ECCENTRICITY":0.00051261,"INCLINATION":82.5065,"RA_OF_ASC_NODE":348.393,"ARG_OF_PERICENTER":136.7814,"MEAN_ANOMALY":223.387,"EPHEMERIS_TYPE":0,"CLASSIFICATION_TYPE":"U","NORAD_CAT_ID":15331,"ELEMENT_SET_NO":999,"REV_AT_EPOCH":27346,"BSTAR":0.00056792995,"MEAN_MOTION_DOT":0.0037078,"MEAN_MOTION_DDOT":6.0321837e-5},{"OBJECT_NAME":"USA 124","OBJECT_ID":"1996-029F","EPOCH":"2026-04-21T17:55:58.966464","MEAN_MOTION":16.45774166,"ECCENTRICITY":0.00159999,"INCLINATION":63.2433,"RA_OF_ASC_NODE":215.5308,"ARG_OF_PERICENTER":72.6256,"MEAN_ANOMALY":287.6665,"EPHEMERIS_TYPE":0,"CLASSIFICATION_TYPE":"U","NORAD_CAT_ID":23937,"ELEMENT_SET_NO":999,"REV_AT_EPOCH":10636,"BSTAR":0.00020545999,"MEAN_MOTION_DOT":0.10528996,"MEAN_MOTION_DDOT":8.802589e-6},{"OBJECT_NAME":"PSLV DEB","OBJECT_ID":"2001-049BW","EPOCH":"2026-04-22T01:31:00.201792","MEAN_MOTION":16.0334899,"ECCENTRICITY":0.00177637,"INCLINATION":98.1285,"RA_OF_ASC_NODE":226.455,"ARG_OF_PERICENTER":258.0774,"MEAN_ANOMALY":101.8512,"EPHEMERIS_TYPE":0,"CLASSIFICATION_TYPE":"U","NORAD_CAT_ID":27126,"ELEMENT_SET_NO":999,"REV_AT_EPOCH":32041,"BSTAR":0.0023959758,"MEAN_MOTION_DOT":0.01472576,"MEAN_MOTION_DDOT":0.0013106961},{"OBJECT_NAME":"CZ-2D DEB","OBJECT_ID":"2005-024L","EPOCH":"2026-04-21T20:25:01.051968","MEAN_MOTION":15.92053455,"ECCENTRICITY":0.00014522,"INCLINATION":97.1587,"RA_OF_ASC_NODE":148.0296,"ARG_OF_PERICENTER":194.7114,"MEAN_ANOMALY":165.4118,"EPHEMERIS_TYPE":0,"CLASSIFICATION_TYPE":"U","NORAD_CAT_ID":35272,"ELEMENT_SET_NO":999,"REV_AT_EPOCH":13055,"BSTAR":0.00059424429,"MEAN_MOTION_DOT":0.00195494,"MEAN_MOTION_DDOT":1.6165342e-5},{"OBJECT_NAME":"WT 1A","OBJECT_ID":"2019-032F","EPOCH":"2026-04-22T06:19:21.355968","MEAN_MOTION":16.11879577,"ECCENTRICITY":0.0012148,"INCLINATION":44.9617,"RA_OF_ASC_NODE":177.3914,"ARG_OF_PERICENTER":24.4791,"MEAN_ANOMALY":335.6698,"EPHEMERIS_TYPE":0,"CLASSIFICATION_TYPE":"U","NORAD_CAT_ID":44315,"ELEMENT_SET_NO":999,"REV_AT_EPOCH":38078,"BSTAR":0.0011813871,"MEAN_MOTION_DOT":0.01307255,"MEAN_MOTION_DDOT":0.0011503541},{"OBJECT_NAME":"STARLINK-1019","OBJECT_ID":"2019-074M","EPOCH":"2026-04-22T08:00:03.000384","MEAN_MOTION":15.9886293,"ECCENTRICITY":0.00070354,"INCLINATION":53.0347,"RA_OF_ASC_NODE":274.68,"ARG_OF_PERICENTER":305.4158,"MEAN_ANOMALY":123.0663,"EPHEMERIS_TYPE":0,"CLASSIFICATION_TYPE":"U","NORAD_CAT_ID":44724,"ELEMENT_SET_NO":999,"REV_AT_EPOCH":601,"BSTAR":0.00067835181,"MEAN_MOTION_DOT":0.00331859,"MEAN_MOTION_DDOT":5.683074e-5},{"OBJECT_NAME":"ANGELS","OBJECT_ID":"2019-092D","EPOCH":"2026-04-22T02:39:07.355520","MEAN_MOTION":16.12019498,"ECCENTRICITY":0.00026294,"INCLINATION":97.3973,"RA_OF_ASC_NODE":331.2011,"ARG_OF_PERICENTER":235.7762,"MEAN_ANOMALY":124.3274,"EPHEMERIS_TYPE":0,"CLASSIFICATION_TYPE":"U","NORAD_CAT_ID":44876,"ELEMENT_SET_NO":999,"REV_AT_EPOCH":35353,"BSTAR":0.0010423571,"MEAN_MOTION_DOT":0.01090621,"MEAN_MOTION_DDOT":0.0007597917},{"OBJECT_NAME":"STARLINK-1159","OBJECT_ID":"2020-006P","EPOCH":"2026-04-21T22:11:53.188224","MEAN_MOTION":16.01719616,"ECCENTRICITY":0.00028238,"INCLINATION":53.038,"RA_OF_ASC_NODE":14.398,"ARG_OF_PERICENTER":193.8407,"MEAN_ANOMALY":166.2546,"EPHEMERIS_TYPE":0,"CLASSIFICATION_TYPE":"U","NORAD_CAT_ID":45057,"ELEMENT_SET_NO":999,"REV_AT_EPOCH":34407,"BSTAR":0.00068519561,"MEAN_MOTION_DOT":0.00394668,"MEAN_MOTION_DDOT":7.9156686e-5},{"OBJECT_NAME":"STARLINK-1457","OBJECT_ID":"2020-035T","EPOCH":"2026-04-22T08:00:03.000384","MEAN_MOTION":15.94579229,"ECCENTRICITY":0.00049595,"INCLINATION":53.0424,"RA_OF_ASC_NODE":161.4685,"ARG_OF_PERICENTER":359.7157,"MEAN_ANOMALY":336.5916,"EPHEMERIS_TYPE":0,"CLASSIFICATION_TYPE":"U","NORAD_CAT_ID":45674,"ELEMENT_SET_NO":999,"REV_AT_EPOCH":587,"BSTAR":0.00054017212,"MEAN_MOTION_DOT":0.00207253,"MEAN_MOTION_DDOT":2.7732599e-5},{"OBJECT_NAME":"STARLINK-1567","OBJECT_ID":"2020-055M","EPOCH":"2026-04-22T08:00:03.000384","MEAN_MOTION":15.93490563,"ECCENTRICITY":0.00012178,"INCLINATION":53.0839,"RA_OF_ASC_NODE":274.1515,"ARG_OF_PERICENTER":297.8214,"MEAN_ANOMALY":223.5203,"EPHEMERIS_TYPE":0,"CLASSIFICATION_TYPE":"U","NORAD_CAT_ID":46038,"ELEMENT_SET_NO":999,"REV_AT_EPOCH":266,"BSTAR":0.0010222035,"MEAN_MOTION_DOT":0.00372226,"MEAN_MOTION_DDOT":6.4876147e-5},{"OBJECT_NAME":"STARLINK-1593","OBJECT_ID":"2020-057C","EPOCH":"2026-04-22T08:00:03.000384","MEAN_MOTION":15.97324755,"ECCENTRICITY":0.00034192,"INCLINATION":53.0349,"RA_OF_ASC_NODE":49.9581,"ARG_OF_PERICENTER":127.7435,"MEAN_ANOMALY":270.9755,"EPHEMERIS_TYPE":0,"CLASSIFICATION_TYPE":"U","NORAD_CAT_ID":46119,"ELEMENT_SET_NO":999,"REV_AT_EPOCH":602,"BSTAR":0.0010644881,"MEAN_MOTION_DOT":0.00477993,"MEAN_MOTION_DDOT":0.0001062298},{"OBJECT_NAME":"STARLINK-1621","OBJECT_ID":"2020-057L","EPOCH":"2026-04-22T04:57:49.966848","MEAN_MOTION":16.07514638,"ECCENTRICITY":0.000382,"INCLINATION":53.0343,"RA_OF_ASC_NODE":22.3971,"ARG_OF_PERICENTER":211.3999,"MEAN_ANOMALY":148.6806,"EPHEMERIS_TYPE":0,"CLASSIFICATION_TYPE":"U","NORAD_CAT_ID":46127,"ELEMENT_SET_NO":999,"REV_AT_EPOCH":31400,"BSTAR":0.0021643,"MEAN_MOTION_DOT":0.01727758,"MEAN_MOTION_DDOT":0.0021446},{"OBJECT_NAME":"JILIN-1 GAOFEN 3B","OBJECT_ID":"2020-065A","EPOCH":"2026-04-22T06:20:32.471808","MEAN_MOTION":16.13716818,"ECCENTRICITY":0.00069246,"INCLINATION":97.2091,"RA_OF_ASC_NODE":172.7351,"ARG_OF_PERICENTER":231.4946,"MEAN_ANOMALY":128.572,"EPHEMERIS_TYPE":0,"CLASSIFICATION_TYPE":"U","NORAD_CAT_ID":46454,"ELEMENT_SET_NO":999,"REV_AT_EPOCH":31165,"BSTAR":0.00091977675,"MEAN_MOTION_DOT":0.01082611,"MEAN_MOTION_DDOT":0.00077539266},{"OBJECT_NAME":"JILIN-1 GAOFEN 3J","OBJECT_ID":"2020-065J","EPOCH":"2026-04-22T06:29:19.581792","MEAN_MOTION":15.95469587,"ECCENTRICITY":0.0005053,"INCLINATION":97.2238,"RA_OF_ASC_NODE":171.5625,"ARG_OF_PERICENTER":219.8676,"MEAN_ANOMALY":140.2229,"EPHEMERIS_TYPE":0,"CLASSIFICATION_TYPE":"U","NORAD_CAT_ID":46462,"ELEMENT_SET_NO":999,"REV_AT_EPOCH":31157,"BSTAR":0.00087813059,"MEAN_MOTION_DOT":0.00346406,"MEAN_MOTION_DDOT":4.9477779e-5},{"OBJECT_NAME":"STARLINK-1680","OBJECT_ID":"2020-070AC","EPOCH":"2026-04-22T08:00:03.000384","MEAN_MOTION":15.98281442,"ECCENTRICITY":0.00066595,"INCLINATION":53.0316,"RA_OF_ASC_NODE":248.6092,"ARG_OF_PERICENTER":309.4407,"MEAN_ANOMALY":124.5793,"EPHEMERIS_TYPE":0,"CLASSIFICATION_TYPE":"U","NORAD_CAT_ID":46558,"ELEMENT_SET_NO":999,"REV_AT_EPOCH":591,"BSTAR":0.00096858021,"MEAN_MOTION_DOT":0.00459497,"MEAN_MOTION_DDOT":9.9893773e-5},{"OBJECT_NAME":"STARLINK-1681","OBJECT_ID":"2020-070AD","EPOCH":"2026-04-22T13:12:42.183936","MEAN_MOTION":16.11732749,"ECCENTRICITY":0.001091,"INCLINATION":53.0357,"RA_OF_ASC_NODE":210.8939,"ARG_OF_PERICENTER":337.3385,"MEAN_ANOMALY":22.7166,"EPHEMERIS_TYPE":0,"CLASSIFICATION_TYPE":"U","NORAD_CAT_ID":46559,"ELEMENT_SET_NO":999,"REV_AT_EPOCH":30792,"BSTAR":0.00090867,"MEAN_MOTION_DOT":0.0098753,"MEAN_MOTION_DDOT":0.00059944}]
