COSMOS 1602             
1 15331U 84105A   26112.18634935  .00370780  60322-4  56793-3 0  9997
2 15331  82.5065 348.3930 0005126 136.7814 223.3870 16.04326357273469
USA 124                 
1 23937U 96029F   26111.74721026  .10528996  88026-5  20546-3 0  9999
2 23937  63.2433 215.5308 0015999  72.6256 287.6665 16.45774166106365
PSLV DEB                
1 27126U 01049BW  26112.06319678  .01472576  13107-2  23960-2 0  9992
2 27126  98.1285 226.4550 0017763 258.0774 101.8512 16.03348990320415
CZ-2D DEB               
1 35272U 05024L   26111.85070662  .00195494  16165-4  59424-3 0  9997
2 35272  97.1587 148.0296 0001452 194.7114 165.4118 15.92053455130556
WT 1A                   
1 44315U 19032F   26112.26344162  .01307255  11504-2  11814-2 0  9995
2 44315  44.9617 177.3914 0012148  24.4791 335.6698 16.11879577380783
STARLINK-1019           
1 44724U 19074M   26112.33336806  .00331859  56831-4  67835-3 0  9994
2 44724  53.0347 274.6800 0007035 305.4158 123.0663 15.98862930  6012
ANGELS                  
1 44876U 19092D   26112.11050180  .01090621  75979-3  10424-2 0  9990
2 44876  97.3973 331.2011 0002629 235.7762 124.3274 16.12019498353534
STARLINK-1159           
1 45057U 20006P   26111.92492116  .00394668  79157-4  68520-3 0  9997
2 45057  53.0380  14.3980 0002823 193.8407 166.2546 16.01719616344070
STARLINK-1457           
1 45674U 20035T   26112.33336806  .00207253  27733-4  54017-3 0  9995
2 45674  53.0424 161.4685 0004959 359.7157 336.5916 15.94579229  5877
STARLINK-1567           
1 46038U 20055M   26112.33336806  .00372226  64876-4  10222-2 0  9993
2 46038  53.0839 274.1515 0001217 297.8214 223.5203 15.93490563  2666
STARLINK-1593           
1 46119U 20057C   26112.33336806  .00477993  10623-3  10645-2 0  9991
2 46119  53.0349  49.9581 0003419 127.7435 270.9755 15.97324755  6020
STARLINK-1621           
1 46127U 20057L   26112.20682832  .01727758  21446-2  21643-2 0  9991
2 46127  53.0343  22.3971 0003820 211.3999 148.6806 16.07514638314003
JILIN-1 GAOFEN 3B       
1 46454U 20065A   26112.26426472  .01082611  77539-3  91978-3 0  9991
2 46454  97.2091 172.7351 0006924 231.4946 128.5720 16.13716818311652
JILIN-1 GAOFEN 3J       
1 46462U 20065J   26112.27036553  .00346406  49478-4  87813-3 0  9997
2 46462  97.2238 171.5625 0005053 219.8676 140.2229 15.95469587311570
STARLINK-1680           
1 46558U 20070AC  26112.33336806  .00459497  99894-4  96858-3 0  9991
2 46558  53.0316 248.6092 0006659 309.4407 124.5793 15.98281442  5912
STARLINK-1681           
1 46559U 20070AD  26112.55048824  .00987530  59944-3  90867-3 0  9995
2 46559  53.0357 210.8939 0010910 337.3385  22.7166 16.11732749307925
